{
    "links": {
        "self": "http://www.neowsapp.com/rest/v1/neo/3789745?api_key=iIulBulltgU6a56xZRHN4H3l9WmuAYTsLGpBGhQ2"
    },
    "id": "3789745",
    "neo_reference_id": "3789745",
    "name": "(2017 WF28)",
    "designation": "2017 WF28",
    "nasa_jpl_url": "http://ssd.jpl.nasa.gov/sbdb.cgi?sstr=3789745",
    "absolute_magnitude_h": 26.3,
    "estimated_diameter": {
        "kilometers": {
            "estimated_diameter_min": 0.0146067964,
            "estimated_diameter_max": 0.0326617897
        },
        "meters": {
            "estimated_diameter_min": 14.6067964271,
            "estimated_diameter_max": 32.6617897446
        },
        "miles": {
            "estimated_diameter_min": 0.0090762397,
            "estimated_diameter_max": 0.020295089
        },
        "feet": {
            "estimated_diameter_min": 47.92256199,
            "estimated_diameter_max": 107.1581062656
        }
    },
    "is_potentially_hazardous_asteroid": false,
    "close_approach_data": [
        {
            "close_approach_date": "1959-10-26",
            "close_approach_date_full": "1959-Oct-26 15:15",
            "epoch_date_close_approach": -321353100000,
            "relative_velocity": {
                "kilometers_per_second": "20.3425256611",
                "kilometers_per_hour": "73233.0923800565",
                "miles_per_hour": "45504.1956513745"
            },
            "miss_distance": {
                "astronomical": "0.449650885",
                "lunar": "174.914194265",
                "kilometers": "67266814.63961495",
                "miles": "41797660.43378831"
            },
            "orbiting_body": "Earth"
        },
        {
            "close_approach_date": "2017-12-06",
            "close_approach_date_full": "2017-Dec-06 21:02",
            "epoch_date_close_approach": 1512594120000,
            "relative_velocity": {
                "kilometers_per_second": "7.559080706",
                "kilometers_per_hour": "27212.6905414322",
                "miles_per_hour": "16908.9076311472"
            },
            "miss_distance": {
                "astronomical": "0.0451854379",
                "lunar": "17.5771353431",
                "kilometers": "6759645.264857273",
                "miles": "4200248.7994574474"
            },
            "orbiting_body": "Earth"
        }
    ],
    "orbital_data": {
        "orbit_id": "2",
        "orbit_determination_date": "2017-12-10 06:27:28",
        "first_observation_date": "2017-11-27",
        "last_observation_date": "2017-12-09",
        "data_arc_in_days": 12,
        "observations_used": 19,
        "orbit_uncertainty": "8",
        "minimum_orbit_intersection": ".0435719",
        "jupiter_tisserand_invariant": "3.472",
        "epoch_osculation": "2458085.5",
        "eccentricity": ".5344592853316922",
        "semi_major_axis": "2.183237204680138",
        "inclination": "6.010829498366182",
        "ascending_node_longitude": "245.8505366633521",
        "orbital_period": "1178.283543682337",
        "perihelion_distance": "1.01638580855723",
        "perihelion_argument": "202.6067843536228",
        "aphelion_distance": "3.350088600803045",
        "perihelion_time": "2458105.469851844912",
        "mean_anomaly": "353.8986276242974",
        "mean_motion": ".3055291758339751",
        "equinox": "J2000",
        "orbit_class": {
            "orbit_class_type": "APO",
            "orbit_class_description": "Near-Earth asteroid orbits which cross the Earth’s orbit similar to that of 1862 Apollo",
            "orbit_class_range": "a (semi-major axis) > 1.0 AU; q (perihelion) < 1.017 AU"
        }
    },
    "is_sentry_object": false
}